{
    "links": {
        "self": "http://www.neowsapp.com/rest/v1/neo/3843374?api_key=iIulBulltgU6a56xZRHN4H3l9WmuAYTsLGpBGhQ2"
    },
    "id": "3843374",
    "neo_reference_id": "3843374",
    "name": "(2019 OO1)",
    "designation": "2019 OO1",
    "nasa_jpl_url": "http://ssd.jpl.nasa.gov/sbdb.cgi?sstr=3843374",
    "absolute_magnitude_h": 23.6,
    "estimated_diameter": {
        "kilometers": {
            "estimated_diameter_min": 0.0506471459,
            "estimated_diameter_max": 0.1132504611
        },
        "meters": {
            "estimated_diameter_min": 50.6471458835,
            "estimated_diameter_max": 113.2504610618
        },
        "miles": {
            "estimated_diameter_min": 0.0314706677,
            "estimated_diameter_max": 0.0703705522
        },
        "feet": {
            "estimated_diameter_min": 166.1651821003,
            "estimated_diameter_max": 371.5566426699
        }
    },
    "is_potentially_hazardous_asteroid": false,
    "close_approach_data": [
        {
            "close_approach_date": "2014-07-10",
            "close_approach_date_full": "2014-Jul-10 23:38",
            "epoch_date_close_approach": 1405035480000,
            "relative_velocity": {
                "kilometers_per_second": "2.3191308629",
                "kilometers_per_hour": "8348.8711065672",
                "miles_per_hour": "5187.6638273"
            },
            "miss_distance": {
                "astronomical": "1.8968067319",
                "lunar": "737.8578187091",
                "kilometers": "283758246.893901053",
                "miles": "176319198.5899904114"
            },
            "orbiting_body": "Juptr"
        },
        {
            "close_approach_date": "2019-07-07",
            "close_approach_date_full": "2019-Jul-07 19:19",
            "epoch_date_close_approach": 1562527140000,
            "relative_velocity": {
                "kilometers_per_second": "7.7630943006",
                "kilometers_per_hour": "27947.139482197",
                "miles_per_hour": "17365.2656410351"
            },
            "miss_distance": {
                "astronomical": "0.0620987917",
                "lunar": "24.1564299713",
                "kilometers": "9289846.967893679",
                "miles": "5772443.2340996102"
            },
            "orbiting_body": "Earth"
        },
        {
            "close_approach_date": "2105-09-15",
            "close_approach_date_full": "2105-Sep-15 15:36",
            "epoch_date_close_approach": 4282472160000,
            "relative_velocity": {
                "kilometers_per_second": "20.4790206602",
                "kilometers_per_hour": "73724.4743768068",
                "miles_per_hour": "45809.5213148553"
            },
            "miss_distance": {
                "astronomical": "0.4961057655",
                "lunar": "192.9851427795",
                "kilometers": "74216365.813519485",
                "miles": "46115911.293299493"
            },
            "orbiting_body": "Earth"
        },
        {
            "close_approach_date": "2115-08-10",
            "close_approach_date_full": "2115-Aug-10 01:27",
            "epoch_date_close_approach": 4594843620000,
            "relative_velocity": {
                "kilometers_per_second": "8.2331151272",
                "kilometers_per_hour": "29639.2144579703",
                "miles_per_hour": "18416.6552280649"
            },
            "miss_distance": {
                "astronomical": "0.1132562556",
                "lunar": "44.0566834284",
                "kilometers": "16942894.601935572",
                "miles": "10527826.5238400136"
            },
            "orbiting_body": "Earth"
        }
    ],
    "orbital_data": {
        "orbit_id": "4",
        "orbit_determination_date": "2020-09-15 06:53:54",
        "first_observation_date": "2019-07-27",
        "last_observation_date": "2019-09-03",
        "data_arc_in_days": 38,
        "observations_used": 17,
        "orbit_uncertainty": "7",
        "minimum_orbit_intersection": ".0564326",
        "jupiter_tisserand_invariant": "3.450",
        "epoch_osculation": "2459000.5",
        "eccentricity": ".5219395602933975",
        "semi_major_axis": "2.222090603863962",
        "inclination": "6.218205859123034",
        "ascending_node_longitude": "277.9319103837852",
        "orbital_period": "1209.876583576312",
        "perihelion_distance": "1.062293611151115",
        "perihelion_argument": "21.86977191083822",
        "aphelion_distance": "3.381887596576808",
        "perihelion_time": "2458684.412882925284",
        "mean_anomaly": "94.05204108549508",
        "mean_motion": ".2975510104806432",
        "equinox": "J2000",
        "orbit_class": {
            "orbit_class_type": "AMO",
            "orbit_class_description": "Near-Earth asteroid orbits similar to that of 1221 Amor",
            "orbit_class_range": "1.017 AU < q (perihelion) < 1.3 AU"
        }
    },
    "is_sentry_object": false
}